NORAD_CAT_ID,OBJECT_NAME,OBJECT_TYPE,EPOCH,MEAN_MOTION,ECCENTRICITY,INCLINATION,RA_OF_ASC_NODE,ARG_OF_PERICENTER,MEAN_ANOMALY,BSTAR,MEAN_MOTION_DOT,MEAN_MOTION_DDOT,TLE_LINE0,TLE_LINE1,TLE_LINE2,SEMIMAJOR_AXIS,PERIOD,APOGEE,PERIGEE,DECAYED
54082.0,STARLINK-5210,PAYLOAD,2023-04-07 10:39:29,15.08847199,0.0001366,53.2173,85.3523,82.1337,277.981,0.00035087,5.302e-05,0.0,0 STARLINK-5210,1 54082U 22136AH  23097.44409457  .00005302  00000-0  35087-3 0  9997,2 54082  53.2173  85.3523 0001366  82.1337 277.9810 15.08847199 25865,6917.858,95.437,540.668,538.778,0.0
54082.0,STARLINK-5210,PAYLOAD,2023-04-07 23:22:34,15.08843602,0.0001434,53.2173,82.9735,82.3564,277.7591,0.00028992,4.33e-05,0.0,0 STARLINK-5210,1 54082U 22136AH  23097.97401591  .00004330  00000-0  28992-3 0  9993,2 54082  53.2173  82.9735 0001434  82.3564 277.7591 15.08843602 26425,6917.869,95.437,540.726,538.742,0.0
54082.0,STARLINK-5210,PAYLOAD,2023-04-08 10:30:16,15.08853087,0.0001416,53.218,80.8922,83.0912,277.0241,0.00050954,7.834e-05,0.0,0 STARLINK-5210,1 54082U 22136AH  23098.43769262  .00007834  00000-0  50954-3 0  9992,2 54082  53.2180  80.8922 0001416  83.0912 277.0241 15.08853087 26011,6917.84,95.437,540.685,538.726,0.0
54082.0,STARLINK-5210,PAYLOAD,2023-04-09 00:48:45,15.08839915,0.0001525,53.2177,78.2165,95.4428,264.6738,7.8232e-05,9.57e-06,0.0,0 STARLINK-5210,1 54082U 22136AH  23099.03385631  .00000957  00000-0  78232-4 0  9992,2 54082  53.2177  78.2165 0001525  95.4428 264.6738 15.08839915 26586,6917.881,95.438,540.801,538.691,0.0
54082.0,STARLINK-5210,PAYLOAD,2023-04-09 08:45:40,15.08847528,0.0001323,53.2184,76.7298,89.008,271.1064,0.00031629,4.75e-05,0.0,0 STARLINK-5210,1 54082U 22136AH  23099.36505429  .00004750  00000-0  31629-3 0  9990,2 54082  53.2184  76.7298 0001323  89.0080 271.1064 15.08847528 26150,6917.857,95.437,540.638,538.807,0.0
54082.0,STARLINK-5210,PAYLOAD,2023-04-09 15:07:13,15.08840004,0.0001387,53.2181,75.5407,86.3636,273.7515,0.00010016,1.306e-05,0.0,0 STARLINK-5210,1 54082U 22136AH  23099.63001650  .00001306  00000-0  10016-3 0  9998,2 54082  53.2181  75.5407 0001387  86.3636 273.7515 15.08840004 26198,6917.88,95.438,540.705,538.786,0.0
54082.0,STARLINK-5210,PAYLOAD,2023-04-10 08:36:28,15.0884181,0.0001345,53.2184,72.2698,90.7718,269.3429,0.00013015,1.784e-05,0.0,0 STARLINK-5210,1 54082U 22136AH  23100.35865809  .00001784  00000-0  13015-3 0  9996,2 54082  53.2184  72.2698 0001345  90.7718 269.3429 15.08841810 26787,6917.875,95.437,540.67,538.809,0.0
54082.0,STARLINK-5210,PAYLOAD,2023-04-10 21:19:33,15.08841752,0.0001294,53.2187,69.8914,91.8656,268.2485,0.00015282,2.145e-05,0.0,0 STARLINK-5210,1 54082U 22136AH  23100.88857856  .00002145  00000-0  15282-3 0  9997,2 54082  53.2187  69.8914 0001294  91.8656 268.2485 15.08841752 26380,6917.875,95.437,540.635,538.845,0.0
54082.0,STARLINK-5210,PAYLOAD,2023-04-11 02:05:42,15.08836217,0.0001361,53.2192,68.9991,91.2859,268.8289,0.00027705,4.124e-05,0.0,0 STARLINK-5210,1 54082U 22136AH  23101.08730202  .00004124  00000-0  27705-3 0  9997,2 54082  53.2192  68.9991 0001361  91.2859 268.8289 15.08836217 26899,6917.892,95.438,540.698,538.815,0.0
54082.0,STARLINK-5210,PAYLOAD,2023-04-11 06:51:51,15.08844624,0.0001343,53.2188,68.1067,86.8957,273.2189,0.00017718,2.533e-05,0.0,0 STARLINK-5210,1 54082U 22136AH  23101.28601742  .00002533  00000-0  17718-3 0  9990,2 54082  53.2188  68.1067 0001343  86.8957 273.2189 15.08844624 26440,6917.866,95.437,540.66,538.802,0.0
54082.0,STARLINK-5210,PAYLOAD,2023-04-11 21:10:20,15.08835848,0.0001017,53.2191,65.4311,91.4829,268.628,2.2193e-05,6.5e-07,0.0,0 STARLINK-5210,1 54082U 22136AH  23101.88218182  .00000065  00000-0  22193-4 0  9990,2 54082  53.2191  65.4311 0001017  91.4829 268.6280 15.08835848 26532,6917.893,95.438,540.462,539.055,0.0
54082.0,STARLINK-5210,PAYLOAD,2023-04-12 03:31:53,15.08838217,0.0001157,53.2198,64.2413,94.9968,265.1156,0.00013272,1.825e-05,0.0,0 STARLINK-5210,1 54082U 22136AH  23102.14714317  .00001825  00000-0  13272-3 0  9993,2 54082  53.2198  64.2413 0001157  94.9968 265.1156 15.08838217 27051,6917.886,95.438,540.551,538.95,0.0
54082.0,STARLINK-5210,PAYLOAD,2023-04-12 06:42:39,15.08843912,0.0001251,53.219,63.6464,91.375,268.7385,0.00012474,1.698e-05,0.0,0 STARLINK-5210,1 54082U 22136AH  23102.27961957  .00001698  00000-0  12474-3 0  9992,2 54082  53.2190  63.6464 0001251  91.3750 268.7385 15.08843912 26596,6917.868,95.437,540.599,538.868,0.0
54082.0,STARLINK-5210,PAYLOAD,2023-04-13 06:33:26,15.08843355,0.0001221,53.2184,59.1852,90.1811,269.9321,0.00010977,1.46e-05,0.0,0 STARLINK-5210,1 54082U 22136AH  23103.27322243  .00001460  00000-0  10977-3 0  9995,2 54082  53.2184  59.1852 0001221  90.1811 269.9321 15.08843355 26743,6917.87,95.437,540.58,538.89,0.0
54082.0,STARLINK-5210,PAYLOAD,2023-04-13 14:30:22,15.08841847,0.0001165,53.2179,57.6996,86.1773,273.9352,6.0845e-05,6.81e-06,0.0,0 STARLINK-5210,1 54082U 22136AH  23103.60442334  .00000681  00000-0  60845-4 0  9990,2 54082  53.2179  57.6996 0001165  86.1773 273.9352 15.08841847 27270,6917.875,95.437,540.546,538.934,0.0
54082.0,STARLINK-5210,PAYLOAD,2023-04-14 06:24:13,15.08848471,0.000128,53.2187,54.7252,91.4843,268.6296,0.00023138,3.397e-05,0.0,0 STARLINK-5210,1 54082U 22136AH  23104.26682184  .00003397  00000-0  23138-3 0  9992,2 54082  53.2187  54.7252 0001280  91.4843 268.6296 15.08848471 26892,6917.854,95.437,540.605,538.834,0.0
54082.0,STARLINK-5210,PAYLOAD,2023-04-15 03:04:14,15.08847468,0.0001285,53.219,50.8585,90.5335,269.5804,0.00015201,2.133e-05,0.0,0 STARLINK-5210,1 54082U 22136AH  23105.12794243  .00002133  00000-0  15201-3 0  9997,2 54082  53.2190  50.8585 0001285  90.5335 269.5804 15.08847468 27502,6917.858,95.437,540.612,538.834,0.0
54082.0,STARLINK-5210,PAYLOAD,2023-04-15 06:15:00,15.08849107,0.0001312,53.2192,50.2637,92.231,267.8833,0.00016782,2.385e-05,0.0,0 STARLINK-5210,1 54082U 22136AH  23105.26042116  .00002385  00000-0  16782-3 0  9991,2 54082  53.2192  50.2637 0001312  92.2310 267.8833 15.08849107 27043,6917.853,95.437,540.625,538.81,0.0
54082.0,STARLINK-5210,PAYLOAD,2023-04-16 02:55:01,15.08840678,8.07e-05,53.2179,46.4021,107.6295,252.4785,0.00014281,1.986e-05,0.0,0 STARLINK-5210,1 54082U 22136AH  23106.12154393  .00001986  00000-0  14281-3 0  9996,2 54082  53.2179  46.4021 0000807 107.6295 252.4785 15.08840678 27650,6917.878,95.438,540.302,539.185,0.0
54082.0,STARLINK-5210,PAYLOAD,2023-04-16 04:30:23,15.08855077,0.0001282,53.2197,46.1036,109.5677,250.5454,3.8482e-05,3.25e-06,0.0,0 STARLINK-5210,1 54082U 22136AH  23106.18777658  .00000325  00000-0  38482-4 0  9993,2 54082  53.2197  46.1036 0001282 109.5677 250.5454 15.08855077 27668,6917.834,95.437,540.586,538.812,0.0
54082.0,STARLINK-5210,PAYLOAD,2023-04-16 18:48:52,15.08841381,0.000135,53.2208,43.433,106.9055,253.2085,6.9407e-05,8.17e-06,0.0,0 STARLINK-5210,1 54082U 22136AH  23106.78394282  .00000817  00000-0  69407-4 0  9994,2 54082  53.2208  43.4330 0001350 106.9055 253.2085 15.08841381 27758,6917.876,95.437,540.675,538.807,0.0
54082.0,STARLINK-5210,PAYLOAD,2023-04-17 04:21:11,15.0884124,0.0001183,53.2192,41.643,94.8764,265.2363,2.8339e-05,1.63e-06,0.0,0 STARLINK-5210,1 54082U 22136AH  23107.18138539  .00000163  00000-0  28339-4 0  9993,2 54082  53.2192  41.6430 0001183  94.8764 265.2363 15.08841240 27337,6917.877,95.437,540.56,538.923,0.0
54082.0,STARLINK-5210,PAYLOAD,2023-04-17 18:39:40,15.08833853,0.0001199,53.2202,38.9692,102.5595,257.5532,9.7571e-05,1.265e-05,0.0,0 STARLINK-5210,1 54082U 22136AH  23107.77755209  .00001265  00000-0  97571-4 0  9995,2 54082  53.2202  38.9692 0001199 102.5595 257.5532 15.08833853 27427,6917.899,95.438,540.594,538.935,0.0
54082.0,STARLINK-5210,PAYLOAD,2023-04-18 05:47:21,15.0884689,0.000121,53.2191,36.8856,103.2333,256.8794,0.00011894,1.606e-05,0.0,0 STARLINK-5210,1 54082U 22136AH  23108.24122590  .00001606  00000-0  11894-3 0  9991,2 54082  53.2191  36.8856 0001210 103.2333 256.8794 15.08846890 27972,6917.859,95.437,540.561,538.887,0.0
54082.0,STARLINK-5210,PAYLOAD,2023-04-18 23:16:37,15.08836942,0.0001395,53.2188,33.6132,97.9698,262.1453,0.00011054,1.472e-05,0.0,0 STARLINK-5210,1 54082U 22136AH  23108.96987542  .00001472  00000-0  11054-3 0  9995,2 54082  53.2188  33.6132 0001395  97.9698 262.1453 15.08836942 28089,6917.89,95.438,540.72,538.79,0.0
54082.0,STARLINK-5210,PAYLOAD,2023-04-19 04:02:46,15.08844978,0.0001217,53.2188,32.7212,88.2737,271.8395,0.0002137,3.115e-05,0.0,0 STARLINK-5210,1 54082U 22136AH  23109.16859221  .00003115  00000-0  21370-3 0  9998,2 54082  53.2188  32.7212 0001217  88.2737 271.8395 15.08844978 27638,6917.865,95.437,540.572,538.888,0.0
54082.0,STARLINK-5210,PAYLOAD,2023-04-20 00:42:47,15.08842967,0.0001299,53.2193,28.8561,81.997,278.117,0.00012019,1.626e-05,0.0,0 STARLINK-5210,1 54082U 22136AH  23110.02971404  .00001626  00000-0  12019-3 0  9998,2 54082  53.2193  28.8561 0001299  81.9970 278.1170 15.08842967 27767,6917.871,95.437,540.635,538.838,0.0
54082.0,STARLINK-5210,PAYLOAD,2023-04-21 00:33:34,15.08835645,8.75e-05,53.22,24.3969,100.8269,259.2821,-3.8805e-05,-9.05e-06,0.0,0 STARLINK-5210,1 54082U 22136AH  23111.02331950 -.00000905  00000-0 -38805-4 0  9998,2 54082  53.2200  24.3969 0000875 100.8269 259.2821 15.08835645 28398,6917.894,95.438,540.364,539.153,0.0
54082.0,STARLINK-5210,PAYLOAD,2023-04-21 18:02:49,15.08845982,0.0001101,53.2182,21.1264,108.8082,251.303,3.4968e-05,2.69e-06,0.0,0 STARLINK-5210,1 54082U 22136AH  23111.75195682  .00000269  00000-0  34968-4 0  9995,2 54082  53.2182  21.1264 0001101 108.8082 251.3030 15.08845982 28507,6917.862,95.437,540.489,538.965,0.0
54082.0,STARLINK-5210,PAYLOAD,2023-04-21 19:38:12,15.08847814,0.0001069,53.2178,20.8301,105.5524,254.5586,7.2462e-05,8.66e-06,0.0,0 STARLINK-5210,1 54082U 22136AH  23111.81819607  .00000866  00000-0  72462-4 0  9996,2 54082  53.2178  20.8301 0001069 105.5524 254.5586 15.08847814 28033,6917.857,95.437,540.461,538.982,0.0
